start=new Date('2021-09-14T00:00:00.000Z').valueOf();
sats=[{"ARG_OF_PERICENTER":"68.4108","FILE":"3114796","MEAN_MOTION_DDOT":"0.0000000000000","ELEMENT_SET_NO":"999","RA_OF_ASC_NODE":"147.6156","COUNTRY_CODE":"US","NORAD_CAT_ID":"48383","CENTER_NAME":"EARTH","OBJECT_ID":"2021-038AG","PERIOD":"95.593","CLASSIFICATION_TYPE":"U","LAUNCH_DATE":"2021-05-04","BSTAR":"0.00002491900000","INCLINATION":"53.0498","TLE_LINE1":"1 48383U 21038AG  21256.08516106  .00000089  00000-0  24919-4 0  9999","SITE":"AFETR","REF_FRAME":"TEME","SEMIMAJOR_AXIS":"6925.379","MEAN_ANOMALY":"291.7110","EPHEMERIS_TYPE":"0","MEAN_MOTION_DOT":"0.00000089","MEAN_MOTION":"15.06389916","APOAPSIS":"548.738","TLE_LINE2":"2 48383  53.0498 147.6156 0002157  68.4108 291.7110 15.06389916 21416","ECCENTRICITY":"0.00021570","OBJECT_NAME":"STARLINK-2599","TIME_SYSTEM":"UTC","REV_AT_EPOCH":"2141","PERIAPSIS":"545.751","OBJECT_TYPE":"PAYLOAD","GP_ID":"184637505","MEAN_ELEMENT_THEORY":"SGP4","EPOCH":"2021-09-13T02:02:37.915584","RCS_SIZE":"LARGE","DECAY_DATE":null},{"APOAPSIS":"548.580","MEAN_MOTION":"15.06389969","ECCENTRICITY":"0.00019290","TLE_LINE2":"2 48384  53.0529 144.0356 0001929  73.2006 286.9194 15.06389969 21531","GP_ID":"184664968","PERIAPSIS":"545.908","OBJECT_TYPE":"PAYLOAD","REV_AT_EPOCH":"2153","OBJECT_NAME":"STARLINK-2601","TIME_SYSTEM":"UTC","RCS_SIZE":"LARGE","EPOCH":"2021-09-13T21:03:48.242880","DECAY_DATE":null,"MEAN_ELEMENT_THEORY":"SGP4","ELEMENT_SET_NO":"999","COUNTRY_CODE":"US","RA_OF_ASC_NODE":"144.0356","MEAN_MOTION_DDOT":"0.0000000000000","ARG_OF_PERICENTER":"73.2006","FILE":"3115005","OBJECT_ID":"2021-038AH","CENTER_NAME":"EARTH","NORAD_CAT_ID":"48384","TLE_LINE1":"1 48384U 21038AH  21256.87764170 -.00000515  00000-0 -15650-4 0  9991","SITE":"AFETR","INCLINATION":"53.0529","BSTAR":"-0.00001565000000","LAUNCH_DATE":"2021-05-04","PERIOD":"95.593","CLASSIFICATION_TYPE":"U","MEAN_MOTION_DOT":"-0.00000515","SEMIMAJOR_AXIS":"6925.379","REF_FRAME":"TEME","MEAN_ANOMALY":"286.9194","EPHEMERIS_TYPE":"0"},{"OBJECT_ID":"2021-038AJ","CENTER_NAME":"EARTH","NORAD_CAT_ID":"48385","ELEMENT_SET_NO":"999","RA_OF_ASC_NODE":"144.0476","COUNTRY_CODE":"US","MEAN_MOTION_DDOT":"0.0000000000000","ARG_OF_PERICENTER":"76.5377","FILE":"3115005","MEAN_MOTION_DOT":"-0.00000660","SEMIMAJOR_AXIS":"6925.356","REF_FRAME":"TEME","EPHEMERIS_TYPE":"0","MEAN_ANOMALY":"283.5850","TLE_LINE1":"1 48385U 21038AJ  21256.87394744 -.00000660  00000-0 -25366-4 0  9994","SITE":"AFETR","INCLINATION":"53.0545","BSTAR":"-0.00002536600000","LAUNCH_DATE":"2021-05-04","CLASSIFICATION_TYPE":"U","PERIOD":"95.592","ECCENTRICITY":"0.00021350","TLE_LINE2":"2 48385  53.0545 144.0476 0002135  76.5377 283.5850 15.06397411 21533","APOAPSIS":"548.700","MEAN_MOTION":"15.06397411","RCS_SIZE":"LARGE","EPOCH":"2021-09-13T20:58:29.058816","DECAY_DATE":null,"MEAN_ELEMENT_THEORY":"SGP4","GP_ID":"184665154","PERIAPSIS":"545.743","OBJECT_TYPE":"PAYLOAD","REV_AT_EPOCH":"2153","OBJECT_NAME":"STARLINK-2598","TIME_SYSTEM":"UTC"},{"SITE":"AFETR","TLE_LINE1":"1 48386U 21038AK  21256.91668981 -.00018766  00000-0 -12441-2 0  9991","INCLINATION":"53.0539","LAUNCH_DATE":"2021-05-04","BSTAR":"-0.00124410000000","PERIOD":"95.592","CLASSIFICATION_TYPE":"U","MEAN_MOTION_DOT":"-0.00018766","MEAN_ANOMALY":"227.9056","EPHEMERIS_TYPE":"0","SEMIMAJOR_AXIS":"6925.344","REF_FRAME":"TEME","RA_OF_ASC_NODE":"138.8562","COUNTRY_CODE":"US","ELEMENT_SET_NO":"999","MEAN_MOTION_DDOT":"0.0000000000000","ARG_OF_PERICENTER":"76.7587","FILE":"3115005","OBJECT_ID":"2021-038AK","CENTER_NAME":"EARTH","NORAD_CAT_ID":"48386","GP_ID":"184664737","OBJECT_TYPE":"PAYLOAD","PERIAPSIS":"545.618","REV_AT_EPOCH":"359","TIME_SYSTEM":"UTC","OBJECT_NAME":"STARLINK-2606","DECAY_DATE":null,"EPOCH":"2021-09-13T22:00:01.999584","RCS_SIZE":"LARGE","MEAN_ELEMENT_THEORY":"SGP4","APOAPSIS":"548.801","MEAN_MOTION":"15.06401373","ECCENTRICITY":"0.00022980","TLE_LINE2":"2 48386  53.0539 138.8562 0002298  76.7587 227.9056 15.06401373  3598"},{"OBJECT_ID":"2021-038AL","NORAD_CAT_ID":"48387","CENTER_NAME":"EARTH","MEAN_MOTION_DDOT":"0.0000000000000","COUNTRY_CODE":"US","RA_OF_ASC_NODE":"138.8590","ELEMENT_SET_NO":"999","ARG_OF_PERICENTER":"80.9202","FILE":"3115005","MEAN_MOTION_DOT":"-0.00021948","EPHEMERIS_TYPE":"0","MEAN_ANOMALY":"43.7352","SEMIMAJOR_AXIS":"6925.318","REF_FRAME":"TEME","INCLINATION":"53.0549","SITE":"AFETR","TLE_LINE1":"1 48387U 21038AL  21256.91668981 -.00021948  00000-0 -14586-2 0  9990","PERIOD":"95.592","CLASSIFICATION_TYPE":"U","LAUNCH_DATE":"2021-05-04","BSTAR":"-0.00145860000000","TLE_LINE2":"2 48387  53.0549 138.8590 0002219  80.9202  43.7352 15.06409917  3602","ECCENTRICITY":"0.00022190","APOAPSIS":"548.720","MEAN_MOTION":"15.06409917","DECAY_DATE":null,"EPOCH":"2021-09-13T22:00:01.999584","RCS_SIZE":"LARGE","MEAN_ELEMENT_THEORY":"SGP4","OBJECT_TYPE":"PAYLOAD","PERIAPSIS":"545.646","GP_ID":"184664951","TIME_SYSTEM":"UTC","OBJECT_NAME":"STARLINK-2600","REV_AT_EPOCH":"360"},{"NORAD_CAT_ID":"48388","CENTER_NAME":"EARTH","OBJECT_ID":"2021-038AM","FILE":"3115005","ARG_OF_PERICENTER":"69.3569","MEAN_MOTION_DDOT":"0.0000000000000","COUNTRY_CODE":"US","RA_OF_ASC_NODE":"138.8542","ELEMENT_SET_NO":"999","MEAN_ANOMALY":"90.2023","EPHEMERIS_TYPE":"0","REF_FRAME":"TEME","SEMIMAJOR_AXIS":"6925.322","MEAN_MOTION_DOT":"-0.00019487","CLASSIFICATION_TYPE":"U","PERIOD":"95.592","BSTAR":"-0.00129250000000","LAUNCH_DATE":"2021-05-04","INCLINATION":"53.0534","SITE":"AFETR","TLE_LINE1":"1 48388U 21038AM  21256.91668981 -.00019487  00000-0 -12925-2 0  9991","TLE_LINE2":"2 48388  53.0534 138.8542 0002767  69.3569  90.2023 15.06408755  3598","ECCENTRICITY":"0.00027670","MEAN_MOTION":"15.06408755","APOAPSIS":"549.103","MEAN_ELEMENT_THEORY":"SGP4","DECAY_DATE":null,"RCS_SIZE":"LARGE","EPOCH":"2021-09-13T22:00:01.999584","TIME_SYSTEM":"UTC","OBJECT_NAME":"STARLINK-2594","REV_AT_EPOCH":"359","OBJECT_TYPE":"PAYLOAD","PERIAPSIS":"545.270","GP_ID":"184664644"},{"MEAN_MOTION_DOT":"-0.00022850","MEAN_ANOMALY":"147.3195","EPHEMERIS_TYPE":"0","SEMIMAJOR_AXIS":"6925.374","REF_FRAME":"TEME","SITE":"AFETR","TLE_LINE1":"1 48389U 21038AN  21256.91668981 -.00022850  00000-0 -15203-2 0  9992","INCLINATION":"53.0519","BSTAR":"-0.00152030000000","LAUNCH_DATE":"2021-05-04","PERIOD":"95.593","CLASSIFICATION_TYPE":"U","OBJECT_ID":"2021-038AN","CENTER_NAME":"EARTH","NORAD_CAT_ID":"48389","RA_OF_ASC_NODE":"133.8586","COUNTRY_CODE":"US","ELEMENT_SET_NO":"999","MEAN_MOTION_DDOT":"0.0000000000000","ARG_OF_PERICENTER":"79.7344","FILE":"3115005","DECAY_DATE":null,"RCS_SIZE":"LARGE","EPOCH":"2021-09-13T22:00:01.999584","MEAN_ELEMENT_THEORY":"SGP4","GP_ID":"184664831","OBJECT_TYPE":"PAYLOAD","PERIAPSIS":"545.720","REV_AT_EPOCH":"361","TIME_SYSTEM":"UTC","OBJECT_NAME":"STARLINK-1904","ECCENTRICITY":"0.00021940","TLE_LINE2":"2 48389  53.0519 133.8586 0002194  79.7344 147.3195 15.06391694  3615","APOAPSIS":"548.758","MEAN_MOTION":"15.06391694"},{"INCLINATION":"53.0538","SITE":"AFETR","TLE_LINE1":"1 48390U 21038AP  21256.91668981 -.00014469  00000-0 -95449-3 0  9992","CLASSIFICATION_TYPE":"U","PERIOD":"95.592","LAUNCH_DATE":"2021-05-04","BSTAR":"-0.00095449000000","MEAN_MOTION_DOT":"-0.00014469","MEAN_ANOMALY":"172.0175","EPHEMERIS_TYPE":"0","REF_FRAME":"TEME","SEMIMAJOR_AXIS":"6925.365","MEAN_MOTION_DDOT":"0.0000000000000","COUNTRY_CODE":"US","RA_OF_ASC_NODE":"133.8586","ELEMENT_SET_NO":"999","ARG_OF_PERICENTER":"75.0049","FILE":"3115005","OBJECT_ID":"2021-038AP","NORAD_CAT_ID":"48390","CENTER_NAME":"EARTH","OBJECT_TYPE":"PAYLOAD","PERIAPSIS":"545.532","GP_ID":"184665062","TIME_SYSTEM":"UTC","OBJECT_NAME":"STARLINK-2586","REV_AT_EPOCH":"359","DECAY_DATE":null,"RCS_SIZE":"LARGE","EPOCH":"2021-09-13T22:00:01.999584","MEAN_ELEMENT_THEORY":"SGP4","APOAPSIS":"548.927","MEAN_MOTION":"15.06394764","TLE_LINE2":"2 48390  53.0538 133.8586 0002451  75.0049 172.0175 15.06394764  3596","ECCENTRICITY":"0.00024510"},{"MEAN_MOTION":"15.06414974","APOAPSIS":"548.909","ECCENTRICITY":"0.00025140","TLE_LINE2":"2 48391  53.0533 133.8601 0002514  78.3935 188.6711 15.06414974  3595","REV_AT_EPOCH":"359","TIME_SYSTEM":"UTC","OBJECT_NAME":"STARLINK-2607","GP_ID":"184664627","OBJECT_TYPE":"PAYLOAD","PERIAPSIS":"545.427","MEAN_ELEMENT_THEORY":"SGP4","DECAY_DATE":null,"EPOCH":"2021-09-13T22:00:01.999584","RCS_SIZE":"LARGE","FILE":"3115005","ARG_OF_PERICENTER":"78.3935","COUNTRY_CODE":"US","RA_OF_ASC_NODE":"133.8601","ELEMENT_SET_NO":"999","MEAN_MOTION_DDOT":"0.0000000000000","CENTER_NAME":"EARTH","NORAD_CAT_ID":"48391","OBJECT_ID":"2021-038AQ","LAUNCH_DATE":"2021-05-04","BSTAR":"-0.00242210000000","PERIOD":"95.591","CLASSIFICATION_TYPE":"U","SITE":"AFETR","TLE_LINE1":"1 48391U 21038AQ  21256.91668981 -.00036193  00000-0 -24221-2 0  9990","INCLINATION":"53.0533","MEAN_ANOMALY":"188.6711","EPHEMERIS_TYPE":"0","REF_FRAME":"TEME","SEMIMAJOR_AXIS":"6925.303","MEAN_MOTION_DOT":"-0.00036193"},{"ECCENTRICITY":"0.00026040","TLE_LINE2":"2 48392  53.0533 133.8562 0002604  80.1043 206.9289 15.06402834 21038","APOAPSIS":"549.008","MEAN_MOTION":"15.06402834","RCS_SIZE":"LARGE","EPOCH":"2021-09-13T22:00:01.999584","DECAY_DATE":null,"MEAN_ELEMENT_THEORY":"SGP4","GP_ID":"184640425","PERIAPSIS":"545.402","OBJECT_TYPE":"PAYLOAD","REV_AT_EPOCH":"2103","OBJECT_NAME":"STARLINK-2605","TIME_SYSTEM":"UTC","OBJECT_ID":"2021-038AR","CENTER_NAME":"EARTH","NORAD_CAT_ID":"48392","ELEMENT_SET_NO":"999","RA_OF_ASC_NODE":"133.8562","COUNTRY_CODE":"US","MEAN_MOTION_DDOT":"0.0000000000000","ARG_OF_PERICENTER":"80.1043","FILE":"3114926","MEAN_MOTION_DOT":"-0.00015148","SEMIMAJOR_AXIS":"6925.340","REF_FRAME":"TEME","MEAN_ANOMALY":"206.9289","EPHEMERIS_TYPE":"0","TLE_LINE1":"1 48392U 21038AR  21256.91668981 -.00015148  00000-0 -10000-2 0  9998","SITE":"AFETR","INCLINATION":"53.0533","LAUNCH_DATE":"2021-05-04","BSTAR":"-0.00100000000000","CLASSIFICATION_TYPE":"U","PERIOD":"95.592"}];
